stk.v.9.0

# WrittenBy    STK_v9.2.1

BEGIN Ephemeris

NumberOfEphemerisPoints 91

ScenarioEpoch            19 May 2020 04:00:00.000

# Epoch in JDate format: 2458988.66666666666667
# Epoch in YYDDD format:   20140.16666666666667


InterpolationMethod     Lagrange

InterpolationSamplesM1      5

CentralBody             Earth

CoordinateSystem        ICRF 

# Time of first point: 19 May 2020 04:00:00.000000000 UTCG = 2458988.66666666666667 JDate = 20140.16666666666667 YYDDD

EphemerisTimePosVel

0.00000000000000e+000 -1.85917806098352e+006 -6.34400297511659e+006 -2.07271934425249e+006 5.08610192573797e+003 3.44531710895626e+002 -5.61662115398473e+003
6.00000000000000e+001 -1.55022154096905e+006 -6.30966335339124e+006 -2.40500391508126e+006 5.20874520196018e+003 7.99710708940342e+002 -5.45554802831575e+003
1.20000000000000e+002 -1.23457806491049e+006 -6.24810669178990e+006 -2.72691438450516e+006 5.30892030231854e+003 1.25144011593155e+003 -5.27094213078308e+003
1.80000000000000e+002 -9.13609176299662e+005 -6.15959851796747e+006 -3.03706217605155e+006 5.38619511664359e+003 1.69777137509299e+003 -5.06359976790786e+003
2.40000000000000e+002 -5.88699390054569e+005 -6.04452061623817e+006 -3.33410945213113e+006 5.44023631626385e+003 2.13677921482169e+003 -4.83441532106074e+003
3.00000000000000e+002 -2.61250220346889e+005 -5.90336938073029e+006 -3.61677488486549e+006 5.47081079183536e+003 2.56656995344076e+003 -4.58437738850432e+003
3.60000000000000e+002 6.73258648975710e+004 -5.73675367416602e+006 -3.88383918315724e+006 5.47778665887012e+003 2.98528966768738e+003 -4.31456452102647e+003
4.20000000000000e+002 3.95611536748007e+005 -5.54539220150242e+006 -4.13415035216149e+006 5.46113382662626e+003 3.39113218970105e+003 -4.02614056955898e+003
4.80000000000000e+002 7.22190718985923e+005 -5.33011040976266e+006 -4.36662866247169e+006 5.42092412790591e+003 3.78234689801651e+003 -3.72034966484997e+003
5.40000000000000e+002 1.04565469641879e+006 -5.09183692743010e+006 -4.58027130758491e+006 5.35733100920095e+003 4.15724626895461e+003 -3.39851085084539e+003
6.00000000000000e+002 1.36460819144159e+006 -4.83159955876413e+006 -4.77415672955651e+006 5.27062878252306e+003 4.51421315583782e+003 -3.06201239492874e+003
6.60000000000000e+002 1.67767538263462e+006 -4.55052085031655e+006 -4.94744859418521e+006 5.16119144214558e+003 4.85170776463108e+003 -2.71230579956218e+003
7.20000000000000e+002 1.98350583943618e+006 -4.24981324877230e+006 -5.09939939858126e+006 5.02949105136099e+003 5.16827429591833e+003 -2.35089954116005e+003
7.80000000000000e+002 2.28078034729046e+006 -3.93077387100181e+006 -5.22935369555666e+006 4.87609570621290e+003 5.46254722456409e+003 -1.97935256320245e+003
8.40000000000000e+002 2.56821659814371e+006 -3.59477890888417e+006 -5.33675092092836e+006 4.70166708498618e+003 5.73325718997260e+003 -1.59926755165667e+003
9.00000000000000e+002 2.84457472174247e+006 -3.24327769303654e+006 -5.42112781153925e+006 4.50695759402543e+003 5.97923647153647e+003 -1.21228402171333e+003
9.60000000000000e+002 3.10866263387420e+006 -2.87778644105603e+006 -5.48212040356625e+006 4.29280712219365e+003 6.19942402565639e+003 -8.20071245657789e+002
1.02000000000000e+003 3.35934117848053e+006 -2.49988171724129e+006 -5.51946560249602e+006 4.06013941797071e+003 6.39287006260428e+003 -4.24321052382958e+002
1.08000000000000e+003 3.59552904146237e+006 -2.11119363200571e+006 -5.53300231799592e+006 3.80995810481939e+003 6.55874014348750e+003 -2.67405296030315e+001
1.14000000000000e+003 3.81620741498084e+006 -1.71339881031686e+006 -5.52267215878501e+006 3.54334235200673e+003 6.69631877964165e+003 3.70955339752416e+002
1.20000000000000e+003 4.02042439213453e+006 -1.30821315949307e+006 -5.48851968450765e+006 3.26144221955487e+003 6.80501251892569e+003 7.67051075200747e+002
1.26000000000000e+003 4.20729907305614e+006 -8.97384467553775e+005 -5.43069221352335e+006 2.96547369740117e+003 6.88435250560663e+003 1.15983809851479e+003
1.32000000000000e+003 4.37602536471702e+006 -4.82684864050806e+005 -5.34943918744185e+006 2.65671346016650e+003 6.93399650279161e+003 1.54762210375814e+003
1.38000000000000e+003 4.52587545804858e+006 -6.59031759013835e+004 -5.24511109514457e+006 2.33649336015714e+003 6.95373036868328e+003 1.92873036575628e+003
1.44000000000000e+003 4.65620296738217e+006 3.51162788803857e+005 -5.11815796093379e+006 2.00619468235500e+003 6.94346898029097e+003 2.30151895547800e+003
1.50000000000000e+003 4.76644571866511e+006 7.66713995733517e+005 -4.96912740333093e+006 1.66724218617771e+003 6.90325660061277e+003 2.66437983120322e+003
1.56000000000000e+003 4.85612817442580e+006 1.17895794453757e+006 -4.79866227289739e+006 1.32109795970948e+003 6.83326668770499e+003 3.01574777488927e+003
1.62000000000000e+003 4.92486348502775e+006 1.58611640088483e+006 -4.60749787926739e+006 9.69255112913093e+002 6.73380114646238e+003 3.35410714381498e+003
1.68000000000000e+003 4.97235515736431e+006 1.98643306696325e+006 -4.39645881935411e+006 6.13231337027362e+002 6.60528902633663e+003 3.67799840837940e+003
1.74000000000000e+003 4.99839833379613e+006 2.37818115735602e+006 -4.16645542041073e+006 2.54562357932157e+002 6.44828467061078e+003 3.98602444785365e+003
1.80000000000000e+003 5.00288067581450e+006 2.75967084761445e+006 -3.91847981328957e+006 -1.05204688279899e+002 6.26346532521238e+003 4.27685657692925e+003
1.86000000000000e+003 4.98578284861905e+006 3.12925656339795e+006 -3.65360165283737e+006 -4.64517928950250e+002 6.05162821738035e+003 4.54924027706678e+003
1.92000000000000e+003 4.94717860451929e+006 3.48534407873905e+006 -3.37296350388709e+006 -8.21827448932626e+002 5.81368711678639e+003 4.80200060792267e+003
1.98000000000000e+003 4.88723446480046e+006 3.82639739281462e+006 -3.07777591274886e+006 -1.17559197622744e+003 5.55066839394512e+003 5.03404727551155e+003
2.04000000000000e+003 4.80620900142586e+006 4.15094535556021e+006 -2.76931218545963e+006 -1.52428553033353e+003 5.26370659291486e+003 5.24437933524239e+003
2.10000000000000e+003 4.70445172167411e+006 4.45758801354742e+006 -2.44890289531557e+006 -1.86640400463934e+003 4.95403953738669e+003 5.43208950954166e+003
2.16000000000000e+003 4.58240156052249e+006 4.74500264875108e+006 -2.11793014337947e+006 -2.20047165445993e+003 4.62300299127171e+003 5.59636810143937e+003
2.22000000000000e+003 4.44058498727956e+006 5.01194948415789e+006 -1.77782159672050e+006 -2.52504746273349e+003 4.27202489681839e+003 5.73650648723627e+003
2.28000000000000e+003 4.27961373463420e+006 5.25727703160484e+006 -1.43004433010292e+006 -2.83873135591859e+003 3.90261921511426e+003 5.85190017318669e+003
2.34000000000000e+003 4.10018215991686e+006 5.47992705877943e+006 -1.07609849768762e+006 -3.14017024327945e+003 3.51637939554103e+003 5.94205140301173e+003
2.40000000000000e+003 3.90306424995546e+006 5.67893915395624e+006 -7.17510862044207e+005 -3.42806385350872e+003 3.11497150235320e+003 6.00657130499516e+003
2.46000000000000e+003 3.68911028244551e+006 5.85345486877966e+006 -3.55828208386367e+005 -3.70117034351101e+003 2.70012702802883e+003 6.04518156940052e+003
2.52000000000000e+003 3.45924315823597e+006 6.00272142122261e+006 7.38932756141666e+003 -3.95831165515349e+003 2.27363542439247e+003 6.05771564897367e+003
2.58000000000000e+003 3.21445442035146e+006 6.12609494274846e+006 3.70574989285235e+005 -4.19837859687702e+003 1.83733638372765e+003 6.04411947735254e+003
2.64000000000000e+003 2.95579997692320e+006 6.22304325566928e+006 7.32162157762183e+005 -4.42033562824784e+003 1.39311190317472e+003 6.00445170228494e+003
2.70000000000000e+003 2.68439554647794e+006 6.29314816872019e+006 1.09059110914775e+006 -4.62322532681165e+003 9.42878166644597e+002 5.93888343264869e+003
2.76000000000000e+003 2.40141184523179e+006 6.33610728094775e+006 1.44431574272053e+006 -4.80617251798197e+003 4.88577279266248e+002 5.84769750036513e+003
2.82000000000000e+003 2.10806953714883e+006 6.35173528613116e+006 1.79181025006289e+006 -4.96838805014824e+003 3.21688900217118e+001 5.73128724038988e+003
2.88000000000000e+003 1.80563396854778e+006 6.33996477210967e+006 2.13157569670979e+006 -5.10917219871975e+003 -4.24378261295131e+002 5.59015479404338e+003
2.94000000000000e+003 1.49540970996898e+006 6.30084651156821e+006 2.46214648787562e+006 -5.22791768442171e+003 -8.79094836333455e+002 5.42490894299983e+003
3.00000000000000e+003 1.17873492884602e+006 6.23454924302695e+006 2.78209669036852e+006 -5.32411229282387e+003 -1.33001939302227e+003 5.23626248327786e+003
3.06000000000000e+003 8.56975617255308e+005 6.14135894297949e+006 3.09004618342262e+006 -5.39734108380249e+003 -1.77520684634625e+003 5.02502915056023e+003
3.12000000000000e+003 5.31519699642804e+005 6.02167759231933e+006 3.38466661191615e+006 -5.44728818140467e+003 -2.21273685856457e+003 4.79212011010530e+003
3.18000000000000e+003 2.03771045944424e+005 5.87602144237571e+006 3.66468711629583e+006 -5.47373813639471e+003 -2.64072212268120e+003 4.53854002639143e+003
3.24000000000000e+003 -1.24856584075262e+005 5.70501878803842e+006 3.92889981449143e+006 -5.47657685560480e+003 -3.05731650343543e+003 4.26538272944785e+003
3.30000000000000e+003 -4.52945639144555e+005 5.50940725757720e+006 4.17616501217381e+006 -5.45579209408152e+003 -3.46072300069620e+003 3.97382649656559e+003
3.36000000000000e+003 -7.79080891161005e+005 5.29003063084631e+006 4.40541611888192e+006 -5.41147350790499e+003 -3.84920150090954e+003 3.66512896974104e+003
3.42000000000000e+003 -1.10185553984670e+006 5.04783519959908e+006 4.61566424881259e+006 -5.34381226745304e+003 -4.22107628316309e+003 3.34062173077607e+003
3.48000000000000e+003 -1.41987728104971e+006 4.78386568561239e+006 4.80600248642760e+006 -5.25310023277847e+003 -4.57474324748975e+003 3.00170455743509e+003
3.54000000000000e+003 -1.73177431251577e+006 4.49926073422843e+006 4.97560979847795e+006 -5.13972869465649e+003 -4.90867683423100e+003 2.64983938543555e+003
END Ephemeris
